[{"OBJECT_NAME":"SALSAT","OBJECT_ID":"2020-068K","EPOCH":"2026-03-09T22:26:21.804576","MEAN_MOTION":15.28191989,"ECCENTRICITY":0.00082652,"INCLINATION":97.8859,"RA_OF_ASC_NODE":66.0795,"ARG_OF_PERICENTER":295.8051,"MEAN_ANOMALY":64.2334,"EPHEMERIS_TYPE":0,"CLASSIFICATION_TYPE":"U","NORAD_CAT_ID":46495,"ELEMENT_SET_NO":999,"REV_AT_EPOCH":30019,"BSTAR":0.00040842582,"MEAN_MOTION_DOT":0.00011156,"MEAN_MOTION_DDOT":0},{"OBJECT_NAME":"STARLINK-35907","OBJECT_ID":"2025-263P","EPOCH":"2026-03-09T03:31:12.129024","MEAN_MOTION":15.27597703,"ECCENTRICITY":4.097e-5,"INCLINATION":42.9992,"RA_OF_ASC_NODE":353.9595,"ARG_OF_PERICENTER":309.0303,"MEAN_ANOMALY":51.0512,"EPHEMERIS_TYPE":0,"CLASSIFICATION_TYPE":"U","NORAD_CAT_ID":66498,"ELEMENT_SET_NO":999,"REV_AT_EPOCH":1881,"BSTAR":0.0014046499,"MEAN_MOTION_DOT":0.00038614,"MEAN_MOTION_DDOT":0}]
